[{"OBJECT_NAME":"XCUBE-1","OBJECT_ID":"2024-247Z","EPOCH":"2026-03-09T11:35:28.885344","MEAN_MOTION":15.27910558,"ECCENTRICITY":0.00052355,"INCLINATION":44.9938,"RA_OF_ASC_NODE":117.7807,"ARG_OF_PERICENTER":331.1499,"MEAN_ANOMALY":28.9094,"EPHEMERIS_TYPE":0,"CLASSIFICATION_TYPE":"U","NORAD_CAT_ID":62400,"ELEMENT_SET_NO":999,"REV_AT_EPOCH":6770,"BSTAR":0.00036224252,"MEAN_MOTION_DOT":9.773e-5,"MEAN_MOTION_DDOT":0},{"OBJECT_NAME":"STARLINK-35589","OBJECT_ID":"2025-259E","EPOCH":"2026-03-09T13:48:33.310656","MEAN_MOTION":15.27585849,"ECCENTRICITY":0.0001843,"INCLINATION":42.9999,"RA_OF_ASC_NODE":275.0108,"ARG_OF_PERICENTER":261.7628,"MEAN_ANOMALY":98.3015,"EPHEMERIS_TYPE":0,"CLASSIFICATION_TYPE":"U","NORAD_CAT_ID":66426,"ELEMENT_SET_NO":999,"REV_AT_EPOCH":1947,"BSTAR":0.00089058,"MEAN_MOTION_DOT":0.0002433,"MEAN_MOTION_DDOT":0}]
